[{"OBJECT_NAME":"JILIN-1 06","OBJECT_ID":"2017-074C","EPOCH":"2026-03-09T22:46:57.173376","MEAN_MOTION":15.32444387,"ECCENTRICITY":0.00061285,"INCLINATION":97.4715,"RA_OF_ASC_NODE":171.0354,"ARG_OF_PERICENTER":223.0031,"MEAN_ANOMALY":137.0732,"EPHEMERIS_TYPE":0,"CLASSIFICATION_TYPE":"U","NORAD_CAT_ID":43024,"ELEMENT_SET_NO":999,"REV_AT_EPOCH":45863,"BSTAR":0.00028431628,"MEAN_MOTION_DOT":8.833e-5,"MEAN_MOTION_DDOT":0},{"OBJECT_NAME":"STARLINK-30913","OBJECT_ID":"2023-178Q","EPOCH":"2026-03-09T03:17:16.921824","MEAN_MOTION":15.30205705,"ECCENTRICITY":0.00014884,"INCLINATION":53.1628,"RA_OF_ASC_NODE":3.8604,"ARG_OF_PERICENTER":95.969,"MEAN_ANOMALY":264.148,"EPHEMERIS_TYPE":0,"CLASSIFICATION_TYPE":"U","NORAD_CAT_ID":58388,"ELEMENT_SET_NO":999,"REV_AT_EPOCH":12980,"BSTAR":0.00013048055,"MEAN_MOTION_DOT":3.508e-5,"MEAN_MOTION_DDOT":0}]
